[{"OBJECT_NAME":"GLOBALSTAR M086","OBJECT_ID":"2011-080F","EPOCH":"2026-03-09T22:45:15.558336","MEAN_MOTION":12.62283911,"ECCENTRICITY":0.00012005,"INCLINATION":51.9888,"RA_OF_ASC_NODE":270.5949,"ARG_OF_PERICENTER":151.4075,"MEAN_ANOMALY":356.929,"EPHEMERIS_TYPE":0,"CLASSIFICATION_TYPE":"U","NORAD_CAT_ID":38045,"ELEMENT_SET_NO":999,"REV_AT_EPOCH":65712,"BSTAR":0.00020861954,"MEAN_MOTION_DOT":-6.6e-7,"MEAN_MOTION_DDOT":0},{"OBJECT_NAME":"COSMOS 2092","OBJECT_ID":"1990-070C","EPOCH":"2026-03-09T22:37:21.699264","MEAN_MOTION":12.63347457,"ECCENTRICITY":0.00047454,"INCLINATION":82.5739,"RA_OF_ASC_NODE":9.3459,"ARG_OF_PERICENTER":11.3945,"MEAN_ANOMALY":56.8879,"EPHEMERIS_TYPE":0,"CLASSIFICATION_TYPE":"U","NORAD_CAT_ID":20737,"ELEMENT_SET_NO":999,"REV_AT_EPOCH":64082,"BSTAR":0.00014361969,"MEAN_MOTION_DOT":3.7e-7,"MEAN_MOTION_DDOT":0}]
